[{"OBJECT_NAME":"STARLINK-5495","OBJECT_ID":"2023-021H","EPOCH":"2026-03-09T16:57:15.087168","MEAN_MOTION":14.98345366,"ECCENTRICITY":0.00035922,"INCLINATION":70.0007,"RA_OF_ASC_NODE":184.4286,"ARG_OF_PERICENTER":276.1302,"MEAN_ANOMALY":83.9448,"EPHEMERIS_TYPE":0,"CLASSIFICATION_TYPE":"U","NORAD_CAT_ID":55635,"ELEMENT_SET_NO":999,"REV_AT_EPOCH":16879,"BSTAR":1.6539935e-5,"MEAN_MOTION_DOT":1.04e-6,"MEAN_MOTION_DDOT":0},{"OBJECT_NAME":"ICEYE-X51","OBJECT_ID":"2025-052AZ","EPOCH":"2026-03-09T22:06:54.407520","MEAN_MOTION":15.00892494,"ECCENTRICITY":0.00020982,"INCLINATION":97.7349,"RA_OF_ASC_NODE":324.3635,"ARG_OF_PERICENTER":65.1031,"MEAN_ANOMALY":295.041,"EPHEMERIS_TYPE":0,"CLASSIFICATION_TYPE":"U","NORAD_CAT_ID":63257,"ELEMENT_SET_NO":999,"REV_AT_EPOCH":5391,"BSTAR":0.00046355347,"MEAN_MOTION_DOT":5.842e-5,"MEAN_MOTION_DDOT":0}]
